HAWK-8B                 
1 59445U 24066D   26068.47430810  .00002353  00000+0  21133-3 0  9999
2 59445  45.6192  73.7012 0004280 258.0487 101.9914 14.98769819104860
STARLINK-34696          
1 64808U 25150U   26068.61195921 -.00000756  00000+0 -55574-4 0  9994
2 64808  70.0012 134.7125 0003774 267.9123  92.1604 14.98315952 36505
